SCD 1                   
1 22490U 93009B   26190.05629478  .00000331  00000+0  39933-4 0  9994
2 22490  24.9700  72.5451 0041877   9.7720 131.7183 14.46127141764289
TECHSAT 1B (GO-32)      
1 25397U 98043D   26189.90993157  .00000035  00000+0  35510-4 0  9994
2 25397  99.0079 183.2175 0002015 124.8391 235.2977 14.24432499454421
SCD 2                   
1 25504U 98060A   26189.42901341  .00000317  00000+0  37738-4 0  9991
2 25504  24.9961 301.1645 0016730 348.4570  70.0412 14.45533420463409
DLR-TUBSAT              
1 25757U 99029B   26189.92493167  .00000047  00000+0  23559-4 0  9990
2 25757  98.6706 186.1452 0013007 285.5031  74.4727 14.52432344436406
TERRA                   
1 25994U 99068A   26190.27644859  .00000261  00000+0  62003-4 0  9997
2 25994  97.9444 238.9456 0003146 134.5499 298.5628 14.61120751412830
MAROC-TUBSAT            
1 27004U 01056D   26190.28530385 -.00000017  00000+0  33362-4 0  9996
2 27004  99.8094   7.5624 0020634  86.6588  39.6423 13.70263320229214
AQUA                    
1 27424U 02022A   26190.30314461  .00000545  00000+0  11799-3 0  9998
2 27424  98.4290 160.0298 0000771 102.6219   4.1556 14.62191716286505
SHIYAN-1 (SY-1)         
1 28220U 04012A   26190.16577245  .00010910  00000+0  33046-3 0  9995
2 28220  97.8685 269.6704 0004104 304.3430  55.7423 15.34348353214461
AURA                    
1 28376U 04026A   26190.30752140  .00000532  00000+0  11736-3 0  9998
2 28376  98.3427 146.9456 0001245  91.3849 268.7494 14.61362486169447
IRS-P5 (CARTOSAT-1)     
1 28649U 05017A   26189.95526612  .00001006  00000+0  10678-3 0  9995
2 28649  97.5304 212.0322 0001703  56.4450 303.6931 14.91106873147069
SINAH 1                 
1 28893U 05043D   26190.33266078  .00000217  00000+0  50588-4 0  9994
2 28893  98.2886 324.7882 0013966 202.1669 157.8931 14.64173126103764
RESURS-DK 1             
1 29228U 06021A   26190.24541127  .00001215  00000+0  74141-4 0  9995
2 29228  69.9328 282.4503 0006781 277.8398  82.1999 15.13306588105916
ARIRANG-2 (KOMPSAT-2)   
1 29268U 06031A   26190.30250061  .00000004  00000+0  92318-5 0  9993
2 29268  97.8319  13.6797 0014752   9.4198 114.3707 14.64672796 64712
LAPAN-TUBSAT            
1 29709U 07001A   26190.27373132  .00000206  00000+0  30209-4 0  9996
2 29709  98.1353 189.9965 0013423 111.1811 249.0839 14.85971482 54432
HAIYANG-1B              
1 31113U 07010A   26189.88995185  .00000062  00000+0  39202-4 0  9993
2 31113  98.3508 170.8947 0014413 133.2290 227.0100 14.31032226  3743
COSMO-SKYMED 1          
1 31598U 07023A   26190.32414223  .00001551  00000+0  13933-3 0  9990
2 31598  97.8845  22.3672 0001049  93.4329 266.7012 14.97202632 33102
TERRASAR-X              
1 31698U 07026A   26188.47915537  .00000240  00000+0  14624-4 0  9994
2 31698  97.4461 195.8972 0001878  86.9540 273.1909 15.19153986 56300
WORLDVIEW-1 (WV-1)      
1 32060U 07041A   26190.21657849  .00004349  00000+0  17973-3 0  9992
2 32060  97.3890 309.6497 0001030 243.0374 117.0759 15.24515316 46232
YAOGAN-3                
1 32289U 07055A   26190.34354528  .00000946  00000+0  10165-3 0  9997
2 32289  97.8149 220.0022 0001517  76.6863 283.4524 14.90865218  9171
COSMO-SKYMED 2          
1 32376U 07059A   26190.30447595  .00000340  00000+0  49296-4 0  9997
2 32376  97.8891  13.5821 0001418  92.7484 267.3891 14.82147435  5283
RADARSAT-2              
1 32382U 07061A   26190.28855054  .00000181  00000+0  87270-4 0  9994
2 32382  98.5786 196.9053 0001317  83.8448 276.2885 14.29982592969118
CARTOSAT-2A             
1 32783U 08021A   26190.30102881  .00000878  00000+0  12467-3 0  9990
2 32783  97.7621 238.2540 0012891  45.0398 315.1857 14.79273293982074
HUANJING 1A (HJ-1A)     
1 33320U 08041A   26190.28217476  .00000570  00000+0  74350-4 0  9993
2 33320  97.6697 175.2677 0020623  67.5902 292.7495 14.84039781961687
HUANJING 1B (HJ-1B)     
1 33321U 08041B   26190.26138027  .00001228  00000+0  15423-3 0  9992
2 33321  97.6532 178.3525 0037832 109.9322 250.5974 14.83359422961689
GEOEYE 1                
1 33331U 08042A   26190.28605440  .00000266  00000+0  58938-4 0  9994
2 33331  98.1329 263.9510 0004389   6.2534 353.8723 14.64646321953383
THEOS                   
1 33396U 08049A   26190.30332809 -.00000048  00000+0 -24711-5 0  9994
2 33396  98.5558 246.8680 0001128  85.3708 274.7598 14.20135765921102
COSMO-SKYMED 3          
1 33412U 08054A   26190.32000074  .00000660  00000+0  48266-4 0  9995
2 33412  97.8269  49.2570 0015267 184.8536 175.2546 15.07090017960273
YAOGAN-4                
1 33446U 08061A   26190.22713588  .00000715  00000+0  93934-4 0  9993
2 33446  97.9305 123.5752 0014361   5.2614 354.8748 14.83244511948938
GOSAT (IBUKI)           
1 33492U 09002A   26190.29756575 -.00000056  00000+0 -13925-5 0  9993
2 33492  98.0911 301.1039 0001114  80.2979 279.8352 14.67534705934701
DEIMOS-1                
1 35681U 09041A   26190.29780664  .00000317  00000+0  53833-4 0  9993
2 35681  97.7431 346.5701 0002644 100.6271 259.5237 14.75260447910143
